{
  "type": "FeatureCollection",
  "features": [
    {
      "type": "Feature",
      "properties": {
        "norad_id": 57400,
        "name": "TIANMU-1 08",
        "group": "weather",
        "lat": 59.20613063136501,
        "lon": -120.86984731426597,
        "alt_km": 473.5469520083434,
        "timestamp": "2025-12-23T07:45:09.040112+00:00",
        "meta_object_name": "TIANMU-1 08",
        "meta_object_id": "2023-101B",
        "meta_epoch": "2025-12-22T23:22:21.364896",
        "meta_mean_motion": 15.28191699,
        "meta_eccentricity": 0.00070936,
        "meta_inclination": 97.2847,
        "meta_ra_of_asc_node": 46.3942,
        "meta_arg_of_pericenter": 54.9959,
        "meta_mean_anomaly": 305.1946,
        "meta_ephemeris_type": 0,
        "meta_classification_type": "U",
        "meta_norad_cat_id": 57400,
        "meta_element_set_no": 999,
        "meta_rev_at_epoch": 13471,
        "meta_bstar": 0.00029753844,
        "meta_mean_motion_dot": 8.109e-05,
        "meta_mean_motion_ddot": 0,
        "tle_line1": "1 57400U 23101B   25356.97385839  .00008109  00000+0  29754-3 0  9993",
        "tle_line2": "2 57400  97.2847  46.3942 0007093  54.9959 305.1946 15.28191699134718"
      },
      "geometry": {
        "type": "Point",
        "coordinates": [
          -120.86984731426597,
          59.20613063136501
        ]
      }
    },
    {
      "type": "Feature",
      "properties": {
        "norad_id": 57401,
        "name": "TIANMU-1 09",
        "group": "weather",
        "lat": -13.786383199674525,
        "lon": -135.55418700812632,
        "alt_km": 489.1076199915615,
        "timestamp": "2025-12-23T07:45:09.040123+00:00",
        "meta_object_name": "TIANMU-1 09",
        "meta_object_id": "2023-101C",
        "meta_epoch": "2025-12-22T23:03:01.273824",
        "meta_mean_motion": 15.28225755,
        "meta_eccentricity": 0.00063627,
        "meta_inclination": 97.2804,
        "meta_ra_of_asc_node": 45.8891,
        "meta_arg_of_pericenter": 55.8578,
        "meta_mean_anomaly": 304.3264,
        "meta_ephemeris_type": 0,
        "meta_classification_type": "U",
        "meta_norad_cat_id": 57401,
        "meta_element_set_no": 999,
        "meta_rev_at_epoch": 13471,
        "meta_bstar": 0.0003097396,
        "meta_mean_motion_dot": 8.452e-05,
        "meta_mean_motion_ddot": 0,
        "tle_line1": "1 57401U 23101C   25356.96043141  .00008452  00000+0  30974-3 0  9997",
        "tle_line2": "2 57401  97.2804  45.8891 0006362  55.8578 304.3264 15.28225755134719"
      },
      "geometry": {
        "type": "Point",
        "coordinates": [
          -135.55418700812632,
          -13.786383199674525
        ]
      }
    },
    {
      "type": "Feature",
      "properties": {
        "norad_id": 57402,
        "name": "TIANMU-1 10",
        "group": "weather",
        "lat": 5.103750513840691,
        "lon": 46.44940609681845,
        "alt_km": 479.76878175197817,
        "timestamp": "2025-12-23T07:45:09.040133+00:00",
        "meta_object_name": "TIANMU-1 10",
        "meta_object_id": "2023-101D",
        "meta_epoch": "2025-12-22T22:18:04.574304",
        "meta_mean_motion": 15.28216236,
        "meta_eccentricity": 0.00080809,
        "meta_inclination": 97.2884,
        "meta_ra_of_asc_node": 46.7191,
        "meta_arg_of_pericenter": 53.8305,
        "meta_mean_anomaly": 306.3682,
        "meta_ephemeris_type": 0,
        "meta_classification_type": "U",
        "meta_norad_cat_id": 57402,
        "meta_element_set_no": 999,
        "meta_rev_at_epoch": 13470,
        "meta_bstar": 0.0002774052,
        "meta_mean_motion_dot": 7.562e-05,
        "meta_mean_motion_ddot": 0,
        "tle_line1": "1 57402U 23101D   25356.92921961  .00007562  00000+0  27741-3 0  9998",
        "tle_line2": "2 57402  97.2884  46.7191 0008080  53.8305 306.3682 15.28216236134705"
      },
      "geometry": {
        "type": "Point",
        "coordinates": [
          46.44940609681845,
          5.103750513840691
        ]
      }
    },
    {
      "type": "Feature",
      "properties": {
        "norad_id": 57490,
        "name": "FENGYUN 3F",
        "group": "weather",
        "lat": 70.46583758962596,
        "lon": -88.96501550423136,
        "alt_km": 818.2873830891349,
        "timestamp": "2025-12-23T07:45:09.040146+00:00",
        "meta_object_name": "FENGYUN 3F",
        "meta_object_id": "2023-111A",
        "meta_epoch": "2025-12-22T22:47:30.846048",
        "meta_mean_motion": 14.19896185,
        "meta_eccentricity": 7.951e-05,
        "meta_inclination": 98.707,
        "meta_ra_of_asc_node": 65.0777,
        "meta_arg_of_pericenter": 115.1356,
        "meta_mean_anomaly": 244.9903,
        "meta_ephemeris_type": 0,
        "meta_classification_type": "U",
        "meta_norad_cat_id": 57490,
        "meta_element_set_no": 999,
        "meta_rev_at_epoch": 12385,
        "meta_bstar": 6.5037572e-05,
        "meta_mean_motion_dot": 9.4e-07,
        "meta_mean_motion_ddot": 0,
        "tle_line1": "1 57490U 23111A   25356.94966257  .00000094  00000+0  65038-4 0  9990",
        "tle_line2": "2 57490  98.7070  65.0777 0000795 115.1356 244.9903 14.19896185123855"
      },
      "geometry": {
        "type": "Point",
        "coordinates": [
          -88.96501550423136,
          70.46583758962596
        ]
      }
    },
    {
      "type": "Feature",
      "properties": {
        "norad_id": 58584,
        "name": "ARKTIKA-M 2",
        "group": "weather",
        "lat": 26.813382986756995,
        "lon": -171.47855737693934,
        "alt_km": 15805.159821019028,
        "timestamp": "2025-12-23T07:45:09.040160+00:00",
        "meta_object_name": "ARKTIKA-M 2",
        "meta_object_id": "2023-198A",
        "meta_epoch": "2025-12-22T07:11:23.769888",
        "meta_mean_motion": 2.00602601,
        "meta_eccentricity": 0.68656622,
        "meta_inclination": 63.2256,
        "meta_ra_of_asc_node": 173.8511,
        "meta_arg_of_pericenter": 268.066,
        "meta_mean_anomaly": 18.8407,
        "meta_ephemeris_type": 0,
        "meta_classification_type": "U",
        "meta_norad_cat_id": 58584,
        "meta_element_set_no": 999,
        "meta_rev_at_epoch": 1477,
        "meta_bstar": 0,
        "meta_mean_motion_dot": 2.07e-06,
        "meta_mean_motion_ddot": 0,
        "tle_line1": "1 58584U 23198A   25356.29958067  .00000207  00000+0  00000+0 0  9997",
        "tle_line2": "2 58584  63.2256 173.8511 6865662 268.0660  18.8407  2.00602601 14773"
      },
      "geometry": {
        "type": "Point",
        "coordinates": [
          -171.47855737693934,
          26.813382986756995
        ]
      }
    },
    {
      "type": "Feature",
      "properties": {
        "norad_id": 58645,
        "name": "TIANMU-1 11",
        "group": "weather",
        "lat": 51.16221273797629,
        "lon": 7.522393014785619,
        "alt_km": 491.26057036294696,
        "timestamp": "2025-12-23T07:45:09.040172+00:00",
        "meta_object_name": "TIANMU-1 11",
        "meta_object_id": "2023-205A",
        "meta_epoch": "2025-12-22T23:39:02.761632",
        "meta_mean_motion": 15.24717023,
        "meta_eccentricity": 0.000753,
        "meta_inclination": 97.3593,
        "meta_ra_of_asc_node": 16.4285,
        "meta_arg_of_pericenter": 266.5995,
        "meta_mean_anomaly": 93.4382,
        "meta_ephemeris_type": 0,
        "meta_classification_type": "U",
        "meta_norad_cat_id": 58645,
        "meta_element_set_no": 999,
        "meta_rev_at_epoch": 11065,
        "meta_bstar": 0.00026927549,
        "meta_mean_motion_dot": 6.597e-05,
        "meta_mean_motion_ddot": 0,
        "tle_line1": "1 58645U 23205A   25356.98544863  .00006597  00000+0  26928-3 0  9994",
        "tle_line2": "2 58645  97.3593  16.4285 0007530 266.5995  93.4382 15.24717023110653"
      },
      "geometry": {
        "type": "Point",
        "coordinates": [
          7.522393014785619,
          51.16221273797629
        ]
      }
    },
    {
      "type": "Feature",
      "properties": {
        "norad_id": 58646,
        "name": "TIANMU-1 12",
        "group": "weather",
        "lat": -77.30772916572003,
        "lon": 161.5483133629784,
        "alt_km": 495.42986711708454,
        "timestamp": "2025-12-23T07:45:09.040182+00:00",
        "meta_object_name": "TIANMU-1 12",
        "meta_object_id": "2023-205B",
        "meta_epoch": "2025-12-23T00:18:58.267296",
        "meta_mean_motion": 15.24602907,
        "meta_eccentricity": 0.00058913,
        "meta_inclination": 97.3581,
        "meta_ra_of_asc_node": 16.2578,
        "meta_arg_of_pericenter": 244.5466,
        "meta_mean_anomaly": 115.5163,
        "meta_ephemeris_type": 0,
        "meta_classification_type": "U",
        "meta_norad_cat_id": 58646,
        "meta_element_set_no": 999,
        "meta_rev_at_epoch": 11064,
        "meta_bstar": 0.00029283278,
        "meta_mean_motion_dot": 7.154e-05,
        "meta_mean_motion_ddot": 0,
        "tle_line1": "1 58646U 23205B   25357.01317439  .00007154  00000+0  29283-3 0  9994",
        "tle_line2": "2 58646  97.3581  16.2578 0005891 244.5466 115.5163 15.24602907110647"
      },
      "geometry": {
        "type": "Point",
        "coordinates": [
          161.5483133629784,
          -77.30772916572003
        ]
      }
    }
  ]
}